OBJECT_NAME,OBJECT_ID,EPOCH,MEAN_MOTION,ECCENTRICITY,INCLINATION,RA_OF_ASC_NODE,ARG_OF_PERICENTER,MEAN_ANOMALY,EPHEMERIS_TYPE,CLASSIFICATION_TYPE,NORAD_CAT_ID,ELEMENT_SET_NO,REV_AT_EPOCH,BSTAR,MEAN_MOTION_DOT,MEAN_MOTION_DDOT
IONOSFERA-M 3,2025-155A,2026-06-14T03:34:08.997600,14.21486012,.0000827,98.6023,127.1302,162.5358,197.5848,0,U,64876,999,4597,.37553E-4,.39E-6,0
IONOSFERA-M 4,2025-155B,2026-06-14T04:24:19.736064,14.21488181,.0000947,98.6030,127.0816,120.5836,239.5436,0,U,64877,999,4597,.34067E-4,.32E-6,0
MICROCARB,2025-156A,2026-06-14T03:49:38.362656,14.72322667,.0014984,97.9831,242.3508,282.8440,77.1094,0,U,64899,999,4752,.78846E-4,.449E-5,0
CO3D 3,2025-156B,2026-06-14T03:50:05.372160,15.20199846,.0001313,97.4334,243.8961,131.2921,228.8428,0,U,64900,999,4907,.21037E-3,.4489E-4,0
CO3D 4,2025-156C,2026-06-14T00:40:44.339808,15.20198817,.0000404,97.4333,243.7668,12.0282,348.0962,0,U,64901,999,4905,.1503E-4,.258E-5,0
CO3D 2,2025-156D,2026-06-14T04:37:04.679328,15.20197373,.0001466,97.4335,243.8270,107.4133,252.7262,0,U,64902,999,4907,.2085E-3,.4448E-4,0
CO3D 1,2025-156E,2026-06-14T04:37:17.704128,15.20196783,.0001256,97.4335,243.8274,111.1033,249.0337,0,U,64903,999,4907,.23396E-3,.5E-4,0
PRSC-S1,2025-164A,2026-06-14T01:57:35.806752,15.06434163,.0007057,41.1314,305.3016,324.8195,35.2153,0,U,65055,999,4796,.3675E-3,.5344E-4,0
SENTINEL-6B,2025-264A,2026-06-14T04:43:42.705984,12.80929952,.0008037,66.0392,141.3891,269.2192,90.7902,0,U,66514,999,2678,-.52668E-6,-.61E-6,0
CAS500-3,2025-274F,2026-06-14T01:19:43.661280,14.88314449,.0006627,97.7447,93.1776,118.2257,241.9630,0,U,66655,999,2968,.12982E-3,.1147E-4,0
CSG-3,2026-001A,2026-06-14T02:14:42.690624,14.82151941,.000134,97.8885,348.7402,93.9434,266.1932,0,U,67304,999,2400,.45758E-4,.312E-5,0
PRSC-E03,2026-092A,2026-06-14T03:20:57.638400,15.06655016,.0004278,38.0002,107.6509,340.9727,19.0875,0,U,68835,999,749,.1812E-3,.2631E-4,0
CAS500-2,2026-100AK,2026-06-14T04:34:52.748256,15.20558906,.001096,97.4087,63.0981,44.0107,316.1999,0,U,69013,999,635,.30575E-3,.6636E-4,0
