IONOSFERA-M 3           
1 64876U 25155A   26165.14871525  .00000039  00000+0  37553-4 0  9990
2 64876  98.6023 127.1302 0000827 162.5358 197.5848 14.21486012 45970
IONOSFERA-M 4           
1 64877U 25155B   26165.18356176  .00000032  00000+0  34067-4 0  9995
2 64877  98.6030 127.0816 0000947 120.5836 239.5436 14.21488181 45975
MICROCARB               
1 64899U 25156A   26165.15947179  .00000449  00000+0  78846-4 0  9991
2 64899  97.9831 242.3508 0014984 282.8440  77.1094 14.72322667 47529
CO3D 3                  
1 64900U 25156B   26165.15978440  .00004489  00000+0  21037-3 0  9996
2 64900  97.4334 243.8961 0001313 131.2921 228.8428 15.20199846 49070
CO3D 4                  
1 64901U 25156C   26165.02829097  .00000258  00000+0  15030-4 0  9993
2 64901  97.4333 243.7668 0000404  12.0282 348.0962 15.20198817 49052
CO3D 2                  
1 64902U 25156D   26165.19241527  .00004448  00000+0  20850-3 0  9998
2 64902  97.4335 243.8270 0001466 107.4133 252.7262 15.20197373 49070
CO3D 1                  
1 64903U 25156E   26165.19256602  .00005000  00000+0  23396-3 0  9992
2 64903  97.4335 243.8274 0001256 111.1033 249.0337 15.20196783 49079
PRSC-S1                 
1 65055U 25164A   26165.08166443  .00005344  00000+0  36750-3 0  9990
2 65055  41.1314 305.3016 0007057 324.8195  35.2153 15.06434163 47964
SENTINEL-6B             
1 66514U 25264A   26165.19702206 -.00000061  00000+0 -52668-6 0  9999
2 66514  66.0392 141.3891 0008037 269.2192  90.7902 12.80929952 26783
CAS500-3                
1 66655U 25274F   26165.05536645  .00001147  00000+0  12982-3 0  9999
2 66655  97.7447  93.1776 0006627 118.2257 241.9630 14.88314449 29684
CSG-3                   
1 67304U 26001A   26165.09354966  .00000312  00000+0  45758-4 0  9999
2 67304  97.8885 348.7402 0001340  93.9434 266.1932 14.82151941 24006
PRSC-E03                
1 68835U 26092A   26165.13955600  .00002631  00000+0  18120-3 0  9994
2 68835  38.0002 107.6509 0004278 340.9727  19.0875 15.06655016  7491
CAS500-2                
1 69013U 26100AK  26165.19088829  .00006636  00000+0  30575-3 0  9996
2 69013  97.4087  63.0981 0010960  44.0107 316.1999 15.20558906  6358
